SENTINEL-5P             
1 42969U 17064A   26191.32125827  .00000007  00000+0  24330-4 0  9999
2 42969  98.7929 133.2886 0001115  92.4357 267.6947 14.19522787452845
